ONEWEB-0545             
1 54647U 22166F   25224.50037518  .00000061  00000+0  11648-3 0  9996
2 54647  87.9261 305.5803 0002586  99.7144 260.4282 13.21827816130726
ONEWEB-0580             
1 54648U 22166G   25224.47357667  .00000091  00000+0  18892-3 0  9994
2 54648  87.9263 305.5832 0002336 105.1468 254.9925 13.21826739130764
ONEWEB-0582             
1 54649U 22166H   25224.59184134 -.00000065  00000+0 -18773-3 0  9996
2 54649  87.9253 305.5566 0002461 106.0214 254.1191 13.21826158130757
ONEWEB-0583             
1 54650U 22166J   25224.60289870 -.00000002  00000+0 -36892-4 0  9997
2 54650  87.9261 305.5768 0002152  98.1347 262.0031 13.21826073130765
ONEWEB-0584             
1 54651U 22166K   25224.47198964  .00000120  00000+0  25782-3 0  9990
2 54651  87.9265 305.5870 0002321 106.9201 253.2188 13.21827669130733
ONEWEB-0585             
1 54652U 22166L   25224.57291904 -.00005589  00000+0 -13567-1 0  9992
2 54652  87.9262 305.5532 0001892 102.1357 257.9989 13.21855034130757
ONEWEB-0586             
1 54653U 22166M   25224.50984723  .00000072  00000+0  14204-3 0  9995
2 54653  87.9264 305.5899 0002230  99.9987 260.1399 13.21826564130741
ONEWEB-0587             
1 54654U 22166N   25224.59497138  .00000047  00000+0  81958-4 0  9997
2 54654  87.9263 305.5208 0001808  96.4205 263.7135 13.21828871130919
